CCSDS_OMM_VERS = 2.0
CREATION_DATE  = 
ORIGINATOR     = 

OBJECT_NAME    = COSMOS 2242
OBJECT_ID      = 1993-024A
CENTER_NAME    = EARTH
REF_FRAME      = TEME
TIME_SYSTEM    = UTC
MEAN_ELEMENT_THEORY = SGP/SGP4

EPOCH          = 2026-04-05T10:43:07.807296
MEAN_MOTION    = 14.96679878
ECCENTRICITY   = .0015583
INCLINATION    = 82.5180
RA_OF_ASC_NODE = 241.1160
ARG_OF_PERICENTER = 210.9560
MEAN_ANOMALY   = 149.0746

EPHEMERIS_TYPE = 0
CLASSIFICATION_TYPE = U
NORAD_CAT_ID   = 22626
ELEMENT_SET_NO = 999
REV_AT_EPOCH   = 78439
BSTAR          = .24752E-3
MEAN_MOTION_DOT = .2856E-4
MEAN_MOTION_DDOT = 0

CCSDS_OMM_VERS = 2.0
CREATION_DATE  = 
ORIGINATOR     = 

OBJECT_NAME    = SL-16 R/B
OBJECT_ID      = 1993-059B
CENTER_NAME    = EARTH
REF_FRAME      = TEME
TIME_SYSTEM    = UTC
MEAN_ELEMENT_THEORY = SGP/SGP4

EPOCH          = 2026-04-05T07:08:44.710944
MEAN_MOTION    = 14.17235195
ECCENTRICITY   = .0016992
INCLINATION    = 70.9904
RA_OF_ASC_NODE = 315.0180
ARG_OF_PERICENTER = 177.0884
MEAN_ANOMALY   = 183.0342

EPHEMERIS_TYPE = 0
CLASSIFICATION_TYPE = U
NORAD_CAT_ID   = 22803
ELEMENT_SET_NO = 999
REV_AT_EPOCH   = 68330
BSTAR          = .10021E-3
MEAN_MOTION_DOT = .155E-5
MEAN_MOTION_DDOT = 0

CCSDS_OMM_VERS = 2.0
CREATION_DATE  = 
ORIGINATOR     = 

OBJECT_NAME    = ARIANE 40 R/B
OBJECT_ID      = 1993-061H
CENTER_NAME    = EARTH
REF_FRAME      = TEME
TIME_SYSTEM    = UTC
MEAN_ELEMENT_THEORY = SGP/SGP4

EPOCH          = 2026-04-05T10:38:42.027072
MEAN_MOTION    = 14.32876481
ECCENTRICITY   = .0010432
INCLINATION    = 98.4867
RA_OF_ASC_NODE = 163.7967
ARG_OF_PERICENTER = 198.8741
MEAN_ANOMALY   = 161.2057

EPHEMERIS_TYPE = 0
CLASSIFICATION_TYPE = U
NORAD_CAT_ID   = 22830
ELEMENT_SET_NO = 999
REV_AT_EPOCH   = 69793
BSTAR          = .1308E-3
MEAN_MOTION_DOT = .314E-5
MEAN_MOTION_DDOT = 0

CCSDS_OMM_VERS = 2.0
CREATION_DATE  = 
ORIGINATOR     = 

OBJECT_NAME    = COSMOS 2278
OBJECT_ID      = 1994-023A
CENTER_NAME    = EARTH
REF_FRAME      = TEME
TIME_SYSTEM    = UTC
MEAN_ELEMENT_THEORY = SGP/SGP4

EPOCH          = 2026-04-05T11:20:41.851104
MEAN_MOTION    = 14.14375075
ECCENTRICITY   = .0009372
INCLINATION    = 71.0504
RA_OF_ASC_NODE = 119.0643
ARG_OF_PERICENTER = 334.0517
MEAN_ANOMALY   = 26.0134

EPHEMERIS_TYPE = 0
CLASSIFICATION_TYPE = U
NORAD_CAT_ID   = 23087
ELEMENT_SET_NO = 999
REV_AT_EPOCH   = 64859
BSTAR          = .49534E-4
MEAN_MOTION_DOT = .48E-6
MEAN_MOTION_DDOT = 0

CCSDS_OMM_VERS = 2.0
CREATION_DATE  = 
ORIGINATOR     = 

OBJECT_NAME    = SL-16 R/B
OBJECT_ID      = 1994-023B
CENTER_NAME    = EARTH
REF_FRAME      = TEME
TIME_SYSTEM    = UTC
MEAN_ELEMENT_THEORY = SGP/SGP4

EPOCH          = 2026-04-05T12:10:13.698336
MEAN_MOTION    = 14.15020032
ECCENTRICITY   = .0005609
INCLINATION    = 71.0032
RA_OF_ASC_NODE = 14.5673
ARG_OF_PERICENTER = 262.4104
MEAN_ANOMALY   = 97.6382

EPHEMERIS_TYPE = 0
CLASSIFICATION_TYPE = U
NORAD_CAT_ID   = 23088
ELEMENT_SET_NO = 999
REV_AT_EPOCH   = 64988
BSTAR          = .86624E-4
MEAN_MOTION_DOT = .12E-5
MEAN_MOTION_DDOT = 0

CCSDS_OMM_VERS = 2.0
CREATION_DATE  = 
ORIGINATOR     = 

OBJECT_NAME    = SL-16 R/B
OBJECT_ID      = 1994-074B
CENTER_NAME    = EARTH
REF_FRAME      = TEME
TIME_SYSTEM    = UTC
MEAN_ELEMENT_THEORY = SGP/SGP4

EPOCH          = 2026-04-05T12:31:20.945280
MEAN_MOTION    = 14.79440778
ECCENTRICITY   = .0007765
INCLINATION    = 97.7067
RA_OF_ASC_NODE = 125.2481
ARG_OF_PERICENTER = 126.6801
MEAN_ANOMALY   = 0.6148

EPHEMERIS_TYPE = 0
CLASSIFICATION_TYPE = U
NORAD_CAT_ID   = 23343
ELEMENT_SET_NO = 999
REV_AT_EPOCH   = 69121
BSTAR          = .9638E-4
MEAN_MOTION_DOT = .67E-5
MEAN_MOTION_DDOT = 0

CCSDS_OMM_VERS = 2.0
CREATION_DATE  = 
ORIGINATOR     = 

OBJECT_NAME    = SL-16 R/B
OBJECT_ID      = 1994-077B
CENTER_NAME    = EARTH
REF_FRAME      = TEME
TIME_SYSTEM    = UTC
MEAN_ELEMENT_THEORY = SGP/SGP4

EPOCH          = 2026-04-05T13:10:25.657248
MEAN_MOTION    = 14.15567675
ECCENTRICITY   = .0001519
INCLINATION    = 70.9818
RA_OF_ASC_NODE = 295.9833
ARG_OF_PERICENTER = 187.0492
MEAN_ANOMALY   = 173.0609

EPHEMERIS_TYPE = 0
CLASSIFICATION_TYPE = U
NORAD_CAT_ID   = 23405
ELEMENT_SET_NO = 999
REV_AT_EPOCH   = 62003
BSTAR          = -.82255E-4
MEAN_MOTION_DOT = -.209E-5
MEAN_MOTION_DDOT = 0

CCSDS_OMM_VERS = 2.0
CREATION_DATE  = 
ORIGINATOR     = 

OBJECT_NAME    = ARIANE 40+ R/B
OBJECT_ID      = 1995-021B
CENTER_NAME    = EARTH
REF_FRAME      = TEME
TIME_SYSTEM    = UTC
MEAN_ELEMENT_THEORY = SGP/SGP4

EPOCH          = 2026-04-05T10:10:10.543296
MEAN_MOTION    = 14.39793132
ECCENTRICITY   = .0007777
INCLINATION    = 98.4453
RA_OF_ASC_NODE = 166.5380
ARG_OF_PERICENTER = 67.7012
MEAN_ANOMALY   = 303.0795

EPHEMERIS_TYPE = 0
CLASSIFICATION_TYPE = U
NORAD_CAT_ID   = 23561
ELEMENT_SET_NO = 999
REV_AT_EPOCH   = 62309
BSTAR          = .14893E-3
MEAN_MOTION_DOT = .424E-5
MEAN_MOTION_DDOT = 0

CCSDS_OMM_VERS = 2.0
CREATION_DATE  = 
ORIGINATOR     = 

OBJECT_NAME    = SL-16 R/B
OBJECT_ID      = 1995-058B
CENTER_NAME    = EARTH
REF_FRAME      = TEME
TIME_SYSTEM    = UTC
MEAN_ELEMENT_THEORY = SGP/SGP4

EPOCH          = 2026-04-05T11:40:37.907904
MEAN_MOTION    = 14.15497913
ECCENTRICITY   = .0010344
INCLINATION    = 71.0190
RA_OF_ASC_NODE = 123.9978
ARG_OF_PERICENTER = 76.6740
MEAN_ANOMALY   = 283.5535

EPHEMERIS_TYPE = 0
CLASSIFICATION_TYPE = U
NORAD_CAT_ID   = 23705
ELEMENT_SET_NO = 999
REV_AT_EPOCH   = 57164
BSTAR          = .32894E-4
MEAN_MOTION_DOT = .17E-6
MEAN_MOTION_DDOT = 0

CCSDS_OMM_VERS = 2.0
CREATION_DATE  = 
ORIGINATOR     = 

OBJECT_NAME    = SL-16 R/B
OBJECT_ID      = 1996-051B
CENTER_NAME    = EARTH
REF_FRAME      = TEME
TIME_SYSTEM    = UTC
MEAN_ELEMENT_THEORY = SGP/SGP4

EPOCH          = 2026-04-05T12:16:26.726880
MEAN_MOTION    = 14.12423632
ECCENTRICITY   = .0013031
INCLINATION    = 70.7579
RA_OF_ASC_NODE = 118.4686
ARG_OF_PERICENTER = 103.8013
MEAN_ANOMALY   = 256.4558

EPHEMERIS_TYPE = 0
CLASSIFICATION_TYPE = U
NORAD_CAT_ID   = 24298
ELEMENT_SET_NO = 999
REV_AT_EPOCH   = 52543
BSTAR          = .76843E-4
MEAN_MOTION_DOT = .93E-6
MEAN_MOTION_DDOT = 0

CCSDS_OMM_VERS = 2.0
CREATION_DATE  = 
ORIGINATOR     = 

OBJECT_NAME    = ORBVIEW 2 (SEASTAR)
OBJECT_ID      = 1997-037A
CENTER_NAME    = EARTH
REF_FRAME      = TEME
TIME_SYSTEM    = UTC
MEAN_ELEMENT_THEORY = SGP/SGP4

EPOCH          = 2026-04-05T11:05:25.866816
MEAN_MOTION    = 14.35515062
ECCENTRICITY   = .0002009
INCLINATION    = 98.8613
RA_OF_ASC_NODE = 260.4898
ARG_OF_PERICENTER = 10.8613
MEAN_ANOMALY   = 349.2615

EPHEMERIS_TYPE = 0
CLASSIFICATION_TYPE = U
NORAD_CAT_ID   = 24883
ELEMENT_SET_NO = 999
REV_AT_EPOCH   = 51231
BSTAR          = .14784E-3
MEAN_MOTION_DOT = .379E-5
MEAN_MOTION_DDOT = 0

CCSDS_OMM_VERS = 2.0
CREATION_DATE  = 
ORIGINATOR     = 

OBJECT_NAME    = SL-16 R/B
OBJECT_ID      = 1998-043G
CENTER_NAME    = EARTH
REF_FRAME      = TEME
TIME_SYSTEM    = UTC
MEAN_ELEMENT_THEORY = SGP/SGP4

EPOCH          = 2026-04-05T09:26:47.666400
MEAN_MOTION    = 14.26056378
ECCENTRICITY   = .0008932
INCLINATION    = 98.8300
RA_OF_ASC_NODE = 48.9539
ARG_OF_PERICENTER = 300.6577
MEAN_ANOMALY   = 59.3722

EPHEMERIS_TYPE = 0
CLASSIFICATION_TYPE = U
NORAD_CAT_ID   = 25400
ELEMENT_SET_NO = 999
REV_AT_EPOCH   = 44279
BSTAR          = .60569E-4
MEAN_MOTION_DOT = .99E-6
MEAN_MOTION_DDOT = 0

