COSMOS 2242             
1 22626U 93024A   26095.44661814  .00002856  00000+0  24752-3 0  9995
2 22626  82.5180 241.1160 0015583 210.9560 149.0746 14.96679878784391
SL-16 R/B               
1 22803U 93059B   26095.29773971  .00000155  00000+0  10021-3 0  9995
2 22803  70.9904 315.0180 0016992 177.0884 183.0342 14.17235195683305
ARIANE 40 R/B           
1 22830U 93061H   26095.44354198  .00000314  00000+0  13080-3 0  9996
2 22830  98.4867 163.7967 0010432 198.8741 161.2057 14.32876481697936
COSMOS 2278             
1 23087U 94023A   26095.47270661  .00000048  00000+0  49534-4 0  9993
2 23087  71.0504 119.0643 0009372 334.0517  26.0134 14.14375075648592
SL-16 R/B               
1 23088U 94023B   26095.50710299  .00000120  00000+0  86624-4 0  9996
2 23088  71.0032  14.5673 0005609 262.4104  97.6382 14.15020032649889
SL-16 R/B               
1 23343U 94074B   26095.52177020  .00000670  00000+0  96380-4 0  9997
2 23343  97.7067 125.2481 0007765 126.6801   0.6148 14.79440778691214
SL-16 R/B               
1 23405U 94077B   26095.54890807 -.00000209  00000+0 -82255-4 0  9992
2 23405  70.9818 295.9833 0001519 187.0492 173.0609 14.15567675620039
ARIANE 40+ R/B          
1 23561U 95021B   26095.42373314  .00000424  00000+0  14893-3 0  9990
2 23561  98.4453 166.5380 0007777  67.7012 303.0795 14.39793132623091
SL-16 R/B               
1 23705U 95058B   26095.48654986  .00000017  00000+0  32894-4 0  9993
2 23705  71.0190 123.9978 0010344  76.6740 283.5535 14.15497913571646
SL-16 R/B               
1 24298U 96051B   26095.51142045  .00000093  00000+0  76843-4 0  9993
2 24298  70.7579 118.4686 0013031 103.8013 256.4558 14.12423632525432
ORBVIEW 2 (SEASTAR)     
1 24883U 97037A   26095.46210494  .00000379  00000+0  14784-3 0  9998
2 24883  98.8613 260.4898 0002009  10.8613 349.2615 14.35515062512313
SL-16 R/B               
1 25400U 98043G   26095.39360725  .00000099  00000+0  60569-4 0  9999
2 25400  98.8300  48.9539 0008932 300.6577  59.3722 14.26056378442795
